{
  "type": "FeatureCollection",
  "features": [
    {
      "type": "Feature",
      "properties": {
        "OBJECT_NAME": "BEIDOU-3 M23 (C45)",
        "OBJECT_ID": "2019-061B",
        "EPOCH": "2025-11-26T15:59:11.855616",
        "MEAN_MOTION": 1.86229531,
        "ECCENTRICITY": 0.0006035,
        "INCLINATION": 54.3988,
        "RA_OF_ASC_NODE": 189.5274,
        "ARG_OF_PERICENTER": 20.6037,
        "MEAN_ANOMALY": 155.5934,
        "EPHEMERIS_TYPE": 0,
        "CLASSIFICATION_TYPE": "U",
        "NORAD_CAT_ID": 44543,
        "ELEMENT_SET_NO": 999,
        "REV_AT_EPOCH": 4202,
        "BSTAR": 0,
        "MEAN_MOTION_DOT": 7.6e-07,
        "MEAN_MOTION_DDOT": 0,
        "norad_id": 44543,
        "name": "BEIDOU-3 M23 (C45)",
        "group": "beidou",
        "longitude_deg": NaN,
        "latitude_deg": NaN,
        "alt_km": NaN,
        "orbit_class": "HEO",
        "timestamp": "2025-11-30T08:43:09.305556+00:00"
      },
      "geometry": {
        "type": "Point",
        "coordinates": [
          NaN,
          NaN
        ]
      }
    },
    {
      "type": "Feature",
      "properties": {
        "OBJECT_NAME": "BEIDOU-3 IGSO-3 (C40)",
        "OBJECT_ID": "2019-073A",
        "EPOCH": "2025-11-20T07:11:22.740000",
        "MEAN_MOTION": 1.00250097,
        "ECCENTRICITY": 0.0044538,
        "INCLINATION": 55.163,
        "RA_OF_ASC_NODE": 283.159,
        "ARG_OF_PERICENTER": 191.5856,
        "MEAN_ANOMALY": 168.2409,
        "EPHEMERIS_TYPE": 0,
        "CLASSIFICATION_TYPE": "U",
        "NORAD_CAT_ID": 44709,
        "ELEMENT_SET_NO": 999,
        "REV_AT_EPOCH": 2236,
        "BSTAR": 0,
        "MEAN_MOTION_DOT": -2.06e-06,
        "MEAN_MOTION_DDOT": 0,
        "norad_id": 44709,
        "name": "BEIDOU-3 IGSO-3 (C40)",
        "group": "beidou",
        "longitude_deg": NaN,
        "latitude_deg": NaN,
        "alt_km": NaN,
        "orbit_class": "HEO",
        "timestamp": "2025-11-30T08:43:09.305627+00:00"
      },
      "geometry": {
        "type": "Point",
        "coordinates": [
          NaN,
          NaN
        ]
      }
    },
    {
      "type": "Feature",
      "properties": {
        "OBJECT_NAME": "BEIDOU-3 M22 (C44)",
        "OBJECT_ID": "2019-078A",
        "EPOCH": "2025-11-27T04:30:08.366112",
        "MEAN_MOTION": 1.86231951,
        "ECCENTRICITY": 0.00055464,
        "INCLINATION": 54.1229,
        "RA_OF_ASC_NODE": 306.9322,
        "ARG_OF_PERICENTER": 22.1843,
        "MEAN_ANOMALY": 337.8402,
        "EPHEMERIS_TYPE": 0,
        "CLASSIFICATION_TYPE": "U",
        "NORAD_CAT_ID": 44793,
        "ELEMENT_SET_NO": 999,
        "REV_AT_EPOCH": 4088,
        "BSTAR": 0,
        "MEAN_MOTION_DOT": -4.1e-07,
        "MEAN_MOTION_DDOT": 0,
        "norad_id": 44793,
        "name": "BEIDOU-3 M22 (C44)",
        "group": "beidou",
        "longitude_deg": NaN,
        "latitude_deg": NaN,
        "alt_km": NaN,
        "orbit_class": "HEO",
        "timestamp": "2025-11-30T08:43:09.305822+00:00"
      },
      "geometry": {
        "type": "Point",
        "coordinates": [
          NaN,
          NaN
        ]
      }
    },
    {
      "type": "Feature",
      "properties": {
        "OBJECT_NAME": "BEIDOU-3 M21 (C43)",
        "OBJECT_ID": "2019-078B",
        "EPOCH": "2025-11-30T00:13:59.543616",
        "MEAN_MOTION": 1.86227589,
        "ECCENTRICITY": 0.0003824,
        "INCLINATION": 54.0932,
        "RA_OF_ASC_NODE": 306.7985,
        "ARG_OF_PERICENTER": 9.8734,
        "MEAN_ANOMALY": 350.131,
        "EPHEMERIS_TYPE": 0,
        "CLASSIFICATION_TYPE": "U",
        "NORAD_CAT_ID": 44794,
        "ELEMENT_SET_NO": 999,
        "REV_AT_EPOCH": 4094,
        "BSTAR": 0,
        "MEAN_MOTION_DOT": -5.1e-07,
        "MEAN_MOTION_DDOT": 0,
        "norad_id": 44794,
        "name": "BEIDOU-3 M21 (C43)",
        "group": "beidou",
        "longitude_deg": NaN,
        "latitude_deg": NaN,
        "alt_km": NaN,
        "orbit_class": "HEO",
        "timestamp": "2025-11-30T08:43:09.305829+00:00"
      },
      "geometry": {
        "type": "Point",
        "coordinates": [
          NaN,
          NaN
        ]
      }
    },
    {
      "type": "Feature",
      "properties": {
        "OBJECT_NAME": "BEIDOU-3 M19 (C41)",
        "OBJECT_ID": "2019-090A",
        "EPOCH": "2025-11-29T20:44:36.194784",
        "MEAN_MOTION": 1.86231195,
        "ECCENTRICITY": 0.0017437,
        "INCLINATION": 56.3818,
        "RA_OF_ASC_NODE": 69.3894,
        "ARG_OF_PERICENTER": 284.5878,
        "MEAN_ANOMALY": 173.5726,
        "EPHEMERIS_TYPE": 0,
        "CLASSIFICATION_TYPE": "U",
        "NORAD_CAT_ID": 44864,
        "ELEMENT_SET_NO": 999,
        "REV_AT_EPOCH": 4052,
        "BSTAR": 0,
        "MEAN_MOTION_DOT": -2.9e-07,
        "MEAN_MOTION_DDOT": 0,
        "norad_id": 44864,
        "name": "BEIDOU-3 M19 (C41)",
        "group": "beidou",
        "longitude_deg": NaN,
        "latitude_deg": NaN,
        "alt_km": NaN,
        "orbit_class": "HEO",
        "timestamp": "2025-11-30T08:43:09.305898+00:00"
      },
      "geometry": {
        "type": "Point",
        "coordinates": [
          NaN,
          NaN
        ]
      }
    },
    {
      "type": "Feature",
      "properties": {
        "OBJECT_NAME": "BEIDOU-3 M20 (C42)",
        "OBJECT_ID": "2019-090B",
        "EPOCH": "2025-11-30T04:17:32.208864",
        "MEAN_MOTION": 1.86231164,
        "ECCENTRICITY": 0.0014569,
        "INCLINATION": 56.3836,
        "RA_OF_ASC_NODE": 69.4132,
        "ARG_OF_PERICENTER": 297.5045,
        "MEAN_ANOMALY": 101.1513,
        "EPHEMERIS_TYPE": 0,
        "CLASSIFICATION_TYPE": "U",
        "NORAD_CAT_ID": 44865,
        "ELEMENT_SET_NO": 999,
        "REV_AT_EPOCH": 4051,
        "BSTAR": 0,
        "MEAN_MOTION_DOT": -3.2e-07,
        "MEAN_MOTION_DDOT": 0,
        "norad_id": 44865,
        "name": "BEIDOU-3 M20 (C42)",
        "group": "beidou",
        "longitude_deg": NaN,
        "latitude_deg": NaN,
        "alt_km": NaN,
        "orbit_class": "HEO",
        "timestamp": "2025-11-30T08:43:09.305905+00:00"
      },
      "geometry": {
        "type": "Point",
        "coordinates": [
          NaN,
          NaN
        ]
      }
    },
    {
      "type": "Feature",
      "properties": {
        "OBJECT_NAME": "BEIDOU-3 G2 (C60)",
        "OBJECT_ID": "2020-017A",
        "EPOCH": "2025-11-30T03:57:00.436032",
        "MEAN_MOTION": 1.00270887,
        "ECCENTRICITY": 0.000436,
        "INCLINATION": 2.9758,
        "RA_OF_ASC_NODE": 43.4957,
        "ARG_OF_PERICENTER": 264.3158,
        "MEAN_ANOMALY": 260.8084,
        "EPHEMERIS_TYPE": 0,
        "CLASSIFICATION_TYPE": "U",
        "NORAD_CAT_ID": 45344,
        "ELEMENT_SET_NO": 999,
        "REV_AT_EPOCH": 2126,
        "BSTAR": 0,
        "MEAN_MOTION_DOT": -1.2e-06,
        "MEAN_MOTION_DDOT": 0,
        "norad_id": 45344,
        "name": "BEIDOU-3 G2 (C60)",
        "group": "beidou",
        "longitude_deg": NaN,
        "latitude_deg": NaN,
        "alt_km": NaN,
        "orbit_class": "HEO",
        "timestamp": "2025-11-30T08:43:09.307048+00:00"
      },
      "geometry": {
        "type": "Point",
        "coordinates": [
          NaN,
          NaN
        ]
      }
    },
    {
      "type": "Feature",
      "properties": {
        "OBJECT_NAME": "BEIDOU-3 G3 (C61)",
        "OBJECT_ID": "2020-040A",
        "EPOCH": "2025-11-29T07:32:57.907104",
        "MEAN_MOTION": 1.00269167,
        "ECCENTRICITY": 0.00049347,
        "INCLINATION": 1.9557,
        "RA_OF_ASC_NODE": 66.4787,
        "ARG_OF_PERICENTER": 308.5325,
        "MEAN_ANOMALY": 277.2582,
        "EPHEMERIS_TYPE": 0,
        "CLASSIFICATION_TYPE": "U",
        "NORAD_CAT_ID": 45807,
        "ELEMENT_SET_NO": 999,
        "REV_AT_EPOCH": 2006,
        "BSTAR": 0,
        "MEAN_MOTION_DOT": -3.32e-06,
        "MEAN_MOTION_DDOT": 0,
        "norad_id": 45807,
        "name": "BEIDOU-3 G3 (C61)",
        "group": "beidou",
        "longitude_deg": NaN,
        "latitude_deg": NaN,
        "alt_km": NaN,
        "orbit_class": "HEO",
        "timestamp": "2025-11-30T08:43:09.308129+00:00"
      },
      "geometry": {
        "type": "Point",
        "coordinates": [
          NaN,
          NaN
        ]
      }
    }
  ]
}