BEIDOU-3 M23 (C45)      
1 44543U 19061B   25330.66610944  .00000076  00000+0  00000+0 0  9997
2 44543  54.3988 189.5274 0006035  20.6037 155.5934  1.86229531 42024
BEIDOU-3 IGSO-3 (C40)   
1 44709U 19073A   25324.29956875 -.00000206  00000+0  00000+0 0  9998
2 44709  55.1630 283.1590 0044538 191.5856 168.2409  1.00250097 22360
BEIDOU-3 M22 (C44)      
1 44793U 19078A   25331.18759683 -.00000041  00000+0  00000+0 0  9997
2 44793  54.1229 306.9322 0005546  22.1843 337.8402  1.86231951 40880
BEIDOU-3 M21 (C43)      
1 44794U 19078B   25334.00971694 -.00000051  00000+0  00000+0 0  9991
2 44794  54.0932 306.7985 0003824   9.8734 350.1310  1.86227589 40947
BEIDOU-3 M19 (C41)      
1 44864U 19090A   25333.86430781 -.00000029  00000+0  00000+0 0  9998
2 44864  56.3818  69.3894 0017437 284.5878 173.5726  1.86231195 40520
BEIDOU-3 M20 (C42)      
1 44865U 19090B   25334.17884501 -.00000032  00000+0  00000+0 0  9991
2 44865  56.3836  69.4132 0014569 297.5045 101.1513  1.86231164 40516
BEIDOU-3 G2 (C60)       
1 45344U 20017A   25334.16458838 -.00000120  00000+0  00000+0 0  9992
2 45344   2.9758  43.4957 0004360 264.3158 260.8084  1.00270887 21269
BEIDOU-3 G3 (C61)       
1 45807U 20040A   25333.31455911 -.00000332  00000+0  00000+0 0  9992
2 45807   1.9557  66.4787 0004934 308.5325 277.2582  1.00269167 20060
